OBJECT_NAME,OBJECT_ID,EPOCH,MEAN_MOTION,ECCENTRICITY,INCLINATION,RA_OF_ASC_NODE,ARG_OF_PERICENTER,MEAN_ANOMALY,EPHEMERIS_TYPE,CLASSIFICATION_TYPE,NORAD_CAT_ID,ELEMENT_SET_NO,REV_AT_EPOCH,BSTAR,MEAN_MOTION_DOT,MEAN_MOTION_DDOT
FENGYUN 1C DEB,1999-025BMC,2026-03-20T09:08:09.303936,14.08043115,.01460586,98.8126,289.0804,69.0745,292.5987,0,U,31246,999,63126,.14044327E-2,.2594E-4,0
FENGYUN 1C DEB,1999-025BMD,2026-03-20T16:31:25.984416,14.05371283,.00580705,99.3588,336.0272,153.0240,237.0477,0,U,31247,999,96897,.24358565E-3,.354E-5,0
FENGYUN 1C DEB,1999-025BME,2026-03-17T15:54:59.196096,13.92949680,.01107059,99.2489,139.1161,55.0936,98.2074,0,U,31248,999,96145,.36432883E-3,.453E-5,0
FENGYUN 1C DEB,1999-025BMG,2026-03-18T12:46:54.801408,14.03446190,.01339004,98.3862,285.1711,26.7880,334.0123,0,U,31250,999,96861,.62123763E-3,.1014E-4,0
FENGYUN 1C DEB,1999-025BMJ,2026-03-21T08:04:09.871104,14.40569170,.02114363,98.3111,101.4601,235.0232,123.0944,0,U,31252,999,98626,.26627813E-3,.1052E-4,0
FENGYUN 1C DEB,1999-025BMK,2026-03-13T21:50:25.918944,14.03723304,.02897011,99.0602,142.8398,197.3180,161.7943,0,U,31253,999,70277,.52265497E-3,.1146E-4,0
FENGYUN 1C DEB,1999-025BML,2026-03-18T14:27:49.171680,14.36677304,.0149357,98.4469,130.5900,276.5040,241.8032,0,U,31254,999,98892,.31851E-3,.1017E-4,0
FENGYUN 1C DEB,1999-025BMN,2026-03-10T18:56:45.460320,14.04620127,.0305145,98.6792,278.6751,226.8179,130.7124,0,U,31256,999,66217,.38425355E-2,.9286E-4,0
FENGYUN 1C DEB,1999-025BMT,2026-03-20T19:54:11.329920,14.40812861,.00499209,99.0276,43.4960,304.9367,54.7136,0,U,31261,999,98762,.84032646E-3,.2682E-4,0
FENGYUN 1C DEB,1999-025BMY,2026-03-17T10:54:01.248768,14.22482878,.01305286,99.2684,69.2810,15.0350,136.5245,0,U,31266,999,98552,.31370688E-3,.715E-5,0
FENGYUN 1C DEB,1999-025BNA,2026-03-13T21:53:03.667200,14.06643921,.00474498,98.7457,117.1271,287.1964,72.4014,0,U,31268,999,63314,.73583677E-3,.119E-4,0
FENGYUN 1C DEB,1999-025BNB,2026-03-21T14:40:35.296896,14.45320237,.02360666,98.1717,320.0587,334.3003,53.8107,0,U,31269,999,97914,.17389468E-2,.8576E-4,0
FENGYUN 1C DEB,1999-025BNE,2026-03-21T10:46:47.677152,14.23194868,.01053758,99.0830,320.4303,190.1549,169.7499,0,U,31272,999,98393,.40533612E-3,.923E-5,0
FENGYUN 1C DEB,1999-025BNG,2026-03-21T07:45:15.044256,13.85880398,.0241681,99.0106,260.9946,203.4585,155.5398,0,U,31274,999,95572,.7794376E-3,.1082E-4,0
FENGYUN 1C DEB,1999-025BNH,2026-03-21T09:26:41.608896,14.02664701,.01050454,98.9340,126.9038,79.1123,282.1843,0,U,31275,999,96869,.80774151E-3,.1266E-4,0
FENGYUN 1C DEB,1999-025BNM,2026-03-20T18:13:38.641728,14.26602224,.00721378,98.5173,90.3907,251.0158,108.3196,0,U,31279,999,98626,.41043127E-3,.975E-5,0
FENGYUN 1C DEB,1999-025BNS,2026-03-17T13:12:51.000192,13.98127420,.01445177,99.7151,181.5027,163.1912,197.4111,0,U,31284,999,96487,.57890161E-3,.852E-5,0
FENGYUN 1C DEB,1999-025BNV,2026-03-18T15:41:08.727936,14.28822548,.00297505,99.3965,145.9642,146.8620,213.4430,0,U,31287,999,98055,.10787509E-2,.2683E-4,0
FENGYUN 1C DEB,1999-025BNW,2026-03-21T05:57:53.310816,15.15534602,.00174223,98.7439,256.2218,302.4954,230.8750,0,U,31288,999,99038,.84924207E-2,.165052E-2,0
FENGYUN 1C DEB,1999-025BPB,2026-03-19T06:02:14.785728,14.30863190,.01255872,98.4236,88.0509,320.0876,39.1124,0,U,31293,999,66624,.72184238E-4,.161E-5,0
