FENGYUN 1C DEB          
1 31246U 99025BMC 26079.38066324  .00002594  00000+0  14044-2 0  9991
2 31246  98.8126 289.0804 0146058  69.0745 292.5987 14.08043115631265
FENGYUN 1C DEB          
1 31247U 99025BMD 26079.68849519  .00000354  00000+0  24359-3 0  9993
2 31247  99.3588 336.0272 0058070 153.0240 237.0477 14.05371283968972
FENGYUN 1C DEB          
1 31248U 99025BME 26076.66318514  .00000453  00000+0  36433-3 0  9991
2 31248  99.2489 139.1161 0110705  55.0936  98.2074 13.92949680961451
FENGYUN 1C DEB          
1 31250U 99025BMG 26077.53257872  .00001014  00000+0  62124-3 0  9990
2 31250  98.3862 285.1711 0133900  26.7880 334.0123 14.03446190968619
FENGYUN 1C DEB          
1 31252U 99025BMJ 26080.33622536  .00001052  00000+0  26628-3 0  9998
2 31252  98.3111 101.4601 0211436 235.0232 123.0944 14.40569170986266
FENGYUN 1C DEB          
1 31253U 99025BMK 26072.91002221  .00001146  00000+0  52265-3 0  9997
2 31253  99.0602 142.8398 0289701 197.3180 161.7943 14.03723304702774
FENGYUN 1C DEB          
1 31254U 99025BML 26077.60265245  .00001017  00000+0  31851-3 0  9991
2 31254  98.4469 130.5900 0149357 276.5040 241.8032 14.36677304988925
FENGYUN 1C DEB          
1 31256U 99025BMN 26069.78941505  .00009286  00000+0  38425-2 0  9992
2 31256  98.6792 278.6751 0305145 226.8179 130.7124 14.04620127662176
FENGYUN 1C DEB          
1 31261U 99025BMT 26079.82929780  .00002682  00000+0  84033-3 0  9995
2 31261  99.0276  43.4960 0049920 304.9367  54.7136 14.40812861987623
FENGYUN 1C DEB          
1 31266U 99025BMY 26076.45418112  .00000715  00000+0  31371-3 0  9990
2 31266  99.2684  69.2810 0130528  15.0350 136.5245 14.22482878985528
FENGYUN 1C DEB          
1 31268U 99025BNA 26072.91184800  .00001190  00000+0  73584-3 0  9993
2 31268  98.7457 117.1271 0047449 287.1964  72.4014 14.06643921633148
FENGYUN 1C DEB          
1 31269U 99025BNB 26080.61151964  .00008576  00000+0  17389-2 0  9990
2 31269  98.1717 320.0587 0236066 334.3003  53.8107 14.45320237979145
FENGYUN 1C DEB          
1 31272U 99025BNE 26080.44916293  .00000923  00000+0  40534-3 0  9996
2 31272  99.0830 320.4303 0105375 190.1549 169.7499 14.23194868983934
FENGYUN 1C DEB          
1 31274U 99025BNG 26080.32309079  .00001082  00000+0  77944-3 0  9995
2 31274  99.0106 260.9946 0241681 203.4585 155.5398 13.85880398955726
FENGYUN 1C DEB          
1 31275U 99025BNH 26080.39353714  .00001266  00000+0  80774-3 0  9997
2 31275  98.9340 126.9038 0105045  79.1123 282.1843 14.02664701968697
FENGYUN 1C DEB          
1 31279U 99025BNM 26079.75947502  .00000975  00000+0  41043-3 0  9995
2 31279  98.5173  90.3907 0072137 251.0158 108.3196 14.26602224986265
FENGYUN 1C DEB          
1 31284U 99025BNS 26076.55059028  .00000852  00000+0  57890-3 0  9994
2 31284  99.7151 181.5027 0144517 163.1912 197.4111 13.98127420964876
FENGYUN 1C DEB          
1 31287U 99025BNV 26077.65357324  .00002683  00000+0  10788-2 0  9997
2 31287  99.3965 145.9642 0029750 146.8620 213.4430 14.28822548980553
FENGYUN 1C DEB          
1 31288U 99025BNW 26080.24853369  .00165052  00000+0  84924-2 0  9990
2 31288  98.7439 256.2218 0017422 302.4954 230.8750 15.15534602990389
FENGYUN 1C DEB          
1 31293U 99025BPB 26078.25156002  .00000161  00000+0  72184-4 0  9990
2 31293  98.4236  88.0509 0125587 320.0876  39.1124 14.30863190666245
